{"features":[{"geometry":{"coordinates":[112.74765890000003,-7.2652738],"type":"Point"},"properties":{"analysis_version":"p0-central-v1","component_id":"cc_000001","entity_type":"stop","input_lineage":{"data/processed/p0/culinary_poi_p0.geojson":"B472BB9F0E8C18A5A85FAB6783FBA2455FD5A8FECE9BAAE4B23ED42A6AD7A608","data/processed/p0/pedestrian_edges.geojson":"6A77F7722AE6F3EF4674405EAEF2E43019F6C90363063E52BEDF44F388636355","data/processed/p0/pedestrian_nodes.geojson":"547A82AA6CD4B2012EE931D022948B12836236F685129EB745DB9359F417D7D3","data/processed/p0/transit_points_p0.geojson":"D15301D6230B26E93F4BDD46E9839D26E174244E6ACABCB674F1BC9956C9B06E"},"node_id":"node_d1aa9db2243d0967d81b40cd4ed86bdc1b23943e3cfd131efca3d89c72826ed1","routing_status":"routable","snap_distance_m":3.991272033115558,"stop_id":"6a94322752d86e03b51f0365","stop_name":"Halte Pemuda RRI","threshold_m":30.0},"type":"Feature"},{"geometry":{"coordinates":[112.75032809999999,-7.2629196],"type":"Point"},"properties":{"analysis_version":"p0-central-v1","component_id":"cc_000001","entity_type":"stop","input_lineage":{"data/processed/p0/culinary_poi_p0.geojson":"B472BB9F0E8C18A5A85FAB6783FBA2455FD5A8FECE9BAAE4B23ED42A6AD7A608","data/processed/p0/pedestrian_edges.geojson":"6A77F7722AE6F3EF4674405EAEF2E43019F6C90363063E52BEDF44F388636355","data/processed/p0/pedestrian_nodes.geojson":"547A82AA6CD4B2012EE931D022948B12836236F685129EB745DB9359F417D7D3","data/processed/p0/transit_points_p0.geojson":"D15301D6230B26E93F4BDD46E9839D26E174244E6ACABCB674F1BC9956C9B06E"},"node_id":"node_580155eba359d7ce2c9568218f101db76d3679eb8641d546b5785165a242a0e2","routing_status":"routable","snap_distance_m":3.9815758333571045,"stop_id":"6a94304b52d86e03b51efc92","stop_name":"Bus Stop Grand City","threshold_m":30.0},"type":"Feature"},{"geometry":{"coordinates":[112.74795169999999,-7.2609883],"type":"Point"},"properties":{"analysis_version":"p0-central-v1","component_id":"cc_000001","entity_type":"stop","input_lineage":{"data/processed/p0/culinary_poi_p0.geojson":"B472BB9F0E8C18A5A85FAB6783FBA2455FD5A8FECE9BAAE4B23ED42A6AD7A608","data/processed/p0/pedestrian_edges.geojson":"6A77F7722AE6F3EF4674405EAEF2E43019F6C90363063E52BEDF44F388636355","data/processed/p0/pedestrian_nodes.geojson":"547A82AA6CD4B2012EE931D022948B12836236F685129EB745DB9359F417D7D3","data/processed/p0/transit_points_p0.geojson":"D15301D6230B26E93F4BDD46E9839D26E174244E6ACABCB674F1BC9956C9B06E"},"node_id":"node_fe1a6b22d9e6369641b88cefb1d973efe1f369d71d53df7bc37fc8b55186a8dd","routing_status":"routable","snap_distance_m":10.473964161696317,"stop_id":"6a942f5e52d86e03b51efa52","stop_name":"Bus Stop Balai Kota A","threshold_m":30.0},"type":"Feature"},{"geometry":{"coordinates":[112.74495790000003,-7.2664402],"type":"Point"},"properties":{"analysis_version":"p0-central-v1","component_id":"cc_000001","entity_type":"stop","input_lineage":{"data/processed/p0/culinary_poi_p0.geojson":"B472BB9F0E8C18A5A85FAB6783FBA2455FD5A8FECE9BAAE4B23ED42A6AD7A608","data/processed/p0/pedestrian_edges.geojson":"6A77F7722AE6F3EF4674405EAEF2E43019F6C90363063E52BEDF44F388636355","data/processed/p0/pedestrian_nodes.geojson":"547A82AA6CD4B2012EE931D022948B12836236F685129EB745DB9359F417D7D3","data/processed/p0/transit_points_p0.geojson":"D15301D6230B26E93F4BDD46E9839D26E174244E6ACABCB674F1BC9956C9B06E"},"node_id":"node_cc3a860eb6d3c53cab0db208afaa0cfdc00d9de036f7ba31ec43382f364ff44d","routing_status":"routable","snap_distance_m":9.679426066229114,"stop_id":"6a92c82852d86e03b51dbb58","stop_name":"Halte Pangsud","threshold_m":30.0},"type":"Feature"},{"geometry":{"coordinates":[112.7419137,-7.2630167],"type":"Point"},"properties":{"analysis_version":"p0-central-v1","component_id":"cc_000001","entity_type":"stop","input_lineage":{"data/processed/p0/culinary_poi_p0.geojson":"B472BB9F0E8C18A5A85FAB6783FBA2455FD5A8FECE9BAAE4B23ED42A6AD7A608","data/processed/p0/pedestrian_edges.geojson":"6A77F7722AE6F3EF4674405EAEF2E43019F6C90363063E52BEDF44F388636355","data/processed/p0/pedestrian_nodes.geojson":"547A82AA6CD4B2012EE931D022948B12836236F685129EB745DB9359F417D7D3","data/processed/p0/transit_points_p0.geojson":"D15301D6230B26E93F4BDD46E9839D26E174244E6ACABCB674F1BC9956C9B06E"},"node_id":"node_aee75159a004ab3d0235e5470ce4b55133f56028799959aaf053455f420bb6c2","routing_status":"routable","snap_distance_m":3.6494970910605407,"stop_id":"6a92c77152d86e03b51db962","stop_name":"Halte Simpang Dukuh","threshold_m":30.0},"type":"Feature"},{"geometry":{"coordinates":[112.73927909999998,-7.2598872],"type":"Point"},"properties":{"analysis_version":"p0-central-v1","component_id":"cc_000001","entity_type":"stop","input_lineage":{"data/processed/p0/culinary_poi_p0.geojson":"B472BB9F0E8C18A5A85FAB6783FBA2455FD5A8FECE9BAAE4B23ED42A6AD7A608","data/processed/p0/pedestrian_edges.geojson":"6A77F7722AE6F3EF4674405EAEF2E43019F6C90363063E52BEDF44F388636355","data/processed/p0/pedestrian_nodes.geojson":"547A82AA6CD4B2012EE931D022948B12836236F685129EB745DB9359F417D7D3","data/processed/p0/transit_points_p0.geojson":"D15301D6230B26E93F4BDD46E9839D26E174244E6ACABCB674F1BC9956C9B06E"},"node_id":"node_65234e7be7c3bf3948323ec2b82a1279780a58f881ce29d2b711119a9a8aa90e","routing_status":"routable","snap_distance_m":16.077352652735335,"stop_id":"6a92c6ad52d86e03b51db794","stop_name":"Bus Stop Tunjungan","threshold_m":30.0},"type":"Feature"},{"geometry":{"coordinates":[112.73782360000001,-7.2573828],"type":"Point"},"properties":{"analysis_version":"p0-central-v1","component_id":"cc_000001","entity_type":"stop","input_lineage":{"data/processed/p0/culinary_poi_p0.geojson":"B472BB9F0E8C18A5A85FAB6783FBA2455FD5A8FECE9BAAE4B23ED42A6AD7A608","data/processed/p0/pedestrian_edges.geojson":"6A77F7722AE6F3EF4674405EAEF2E43019F6C90363063E52BEDF44F388636355","data/processed/p0/pedestrian_nodes.geojson":"547A82AA6CD4B2012EE931D022948B12836236F685129EB745DB9359F417D7D3","data/processed/p0/transit_points_p0.geojson":"D15301D6230B26E93F4BDD46E9839D26E174244E6ACABCB674F1BC9956C9B06E"},"node_id":"node_92f7fed16c6d519b5bd0e2dd70d096d096c7d45037136bee0709c5a39597ed1f","routing_status":"routable","snap_distance_m":5.221947513998515,"stop_id":"6a92c5e152d86e03b51db51f","stop_name":"Bus Stop Siola","threshold_m":30.0},"type":"Feature"},{"geometry":{"coordinates":[112.73747229999998,-7.2605207],"type":"Point"},"properties":{"analysis_version":"p0-central-v1","component_id":"cc_000001","entity_type":"stop","input_lineage":{"data/processed/p0/culinary_poi_p0.geojson":"B472BB9F0E8C18A5A85FAB6783FBA2455FD5A8FECE9BAAE4B23ED42A6AD7A608","data/processed/p0/pedestrian_edges.geojson":"6A77F7722AE6F3EF4674405EAEF2E43019F6C90363063E52BEDF44F388636355","data/processed/p0/pedestrian_nodes.geojson":"547A82AA6CD4B2012EE931D022948B12836236F685129EB745DB9359F417D7D3","data/processed/p0/transit_points_p0.geojson":"D15301D6230B26E93F4BDD46E9839D26E174244E6ACABCB674F1BC9956C9B06E"},"node_id":"node_c7dfa1b1e43e7145dd9e14869d365062ae5eac641d15fe6e031ec1e162cee18d","routing_status":"routable","snap_distance_m":5.906834627116268,"stop_id":"6a92b2233f59e23bb862c962","stop_name":"Halte Embong Malang","threshold_m":30.0},"type":"Feature"},{"geometry":{"coordinates":[112.74095999999997,-7.2647],"type":"Point"},"properties":{"analysis_version":"p0-central-v1","component_id":"cc_000001","entity_type":"stop","input_lineage":{"data/processed/p0/culinary_poi_p0.geojson":"B472BB9F0E8C18A5A85FAB6783FBA2455FD5A8FECE9BAAE4B23ED42A6AD7A608","data/processed/p0/pedestrian_edges.geojson":"6A77F7722AE6F3EF4674405EAEF2E43019F6C90363063E52BEDF44F388636355","data/processed/p0/pedestrian_nodes.geojson":"547A82AA6CD4B2012EE931D022948B12836236F685129EB745DB9359F417D7D3","data/processed/p0/transit_points_p0.geojson":"D15301D6230B26E93F4BDD46E9839D26E174244E6ACABCB674F1BC9956C9B06E"},"node_id":"node_20c1e9db24b294bbdbe26c05a029b0b6dcdae6eece0b541e6a4ff4f732ce91ed","routing_status":"routable","snap_distance_m":3.5770083622304645,"stop_id":"6a92b1273f59e23bb862c863","stop_name":"Halte Kaliasin","threshold_m":30.0},"type":"Feature"}],"metadata":{"analysis_version":"p0-central-v1","artifact_scope":"PHASE-03 interim validation evidence; not PHASE-04 canonical output","input_hashes":{"data/processed/p0/culinary_poi_p0.geojson":"B472BB9F0E8C18A5A85FAB6783FBA2455FD5A8FECE9BAAE4B23ED42A6AD7A608","data/processed/p0/pedestrian_edges.geojson":"6A77F7722AE6F3EF4674405EAEF2E43019F6C90363063E52BEDF44F388636355","data/processed/p0/pedestrian_nodes.geojson":"547A82AA6CD4B2012EE931D022948B12836236F685129EB745DB9359F417D7D3","data/processed/p0/transit_points_p0.geojson":"D15301D6230B26E93F4BDD46E9839D26E174244E6ACABCB674F1BC9956C9B06E"},"metric_crs":"EPSG:32749","output_crs":"EPSG:4326","output_name":"phase03_stop_snaps_baseline","threshold_state":"baseline-evaluation"},"type":"FeatureCollection"}
