{"features":[{"geometry":{"coordinates":[[[112.74855218161666,-7.274739063994714],[112.74768373510948,-7.275062486756807],[112.74678672563586,-7.2752955656060205],[112.74587055233008,-7.275435858126983],[112.74494481519443,-7.275481894144229],[112.74401921449076,-7.275433191135389],[112.74310344907941,-7.275290259293976],[112.74220711477143,-7.275054596188158],[112.74133960376068,-7.27472867107134],[112.7373416291374,-7.272988453849705],[112.73658644382209,-7.272617113674539],[112.73586905732098,-7.272177350773404],[112.73519566971757,-7.271672965807044],[112.73457210078001,-7.271108317945104],[112.734003739658,-7.270488287187259],[112.73051603389538,-7.266308930024166],[112.72996825622502,-7.2655808776647115],[112.729496596902,-7.264801497980458],[112.72910583995353,-7.263978696731884],[112.72879994868488,-7.263120820108007],[112.72858202548855,-7.262236570056837],[112.72845428038993,-7.261334916008154],[112.72841800864781,-7.260425003884476],[112.7284735776362,-7.259516063323337],[112.72882494257716,-7.2563781555725395],[112.72897055243018,-7.255485144026689],[112.7292048083675,-7.254611134945767],[112.72952536422407,-7.253764879864317],[112.72992900974603,-7.252954852355014],[112.73041170275484,-7.252189163184821],[112.73096860963913,-7.2514754791064115],[112.73159415376824,-7.2508209460972965],[112.73228207134174,-7.250232117815419],[112.73302547411578,-7.249714889986765],[112.73381691837761,-7.249274441382085],[112.73464847947763,-7.248915181972829],[112.73551183117284,-7.248640708785297],[112.73639832898755,-7.248453769894321],[112.73729909675674,-7.248356236916742],[112.73820511548672,-7.248349086279674],[112.73910731364322,-7.248432389450612],[112.73999665796444,-7.2486053122272205],[112.74086424388999,-7.248866123093302],[112.75099214511495,-7.252471596183376],[112.75193907946665,-7.252870519482013],[112.75283464344682,-7.253374028373572],[112.753667299356,-7.253975635980528],[112.7560436725544,-7.255906909586492],[112.75669299460104,-7.256488716317568],[112.75728323274457,-7.257130221000268],[112.75780890777816,-7.257825468682158],[112.75826513974997,-7.258568005519244],[112.75864769326516,-7.259350938678354],[112.75895301680816,-7.260167000314805],[112.75917827571949,-7.261008615031469],[112.75932137852104,-7.26186797019352],[112.75938099634507,-7.262737088446218],[112.75935657528574,-7.263607901763264],[112.7592483415583,-7.264472326338088],[112.75905729941734,-7.265322337623381],[112.75878522185238,-7.2661500448224015],[112.75843463414718,-7.266947764140321],[112.758008790454,-7.267708090115996],[112.75751164360015,-7.268423964371668],[112.75694780840631,-7.269088741142367],[112.75632251885673,-7.269696248976341],[112.75365332697862,-7.272050485718473],[112.75290827186959,-7.27264105033345],[112.75210527934685,-7.2731503064506065],[112.75125321171652,-7.273572633355442],[112.74855218161666,-7.274739063994714]]],"type":"Polygon"},"properties":{"analysis_version":"p0-central-v1","area_id":"study_area_p0","buffer_m":1000,"construction":"convex_hull_of_9_p0_stops_buffered_1000m","metric_crs":"EPSG:32749","stop_ids":["6a94322752d86e03b51f0365","6a94304b52d86e03b51efc92","6a942f5e52d86e03b51efa52","6a92c82852d86e03b51dbb58","6a92c77152d86e03b51db962","6a92c6ad52d86e03b51db794","6a92c5e152d86e03b51db51f","6a92b2233f59e23bb862c962","6a92b1273f59e23bb862c863"],"transit_source_file":"data/raw/transit/SurveiActivities.GeoJSON","transit_source_sha256":"63D5A24D5A74207642A13780254E8897D5D8B39608411474D6A1A83E21DFD398","web_crs":"EPSG:4326"},"type":"Feature"}],"metadata":{"analysis_version":"p0-central-v1","output_crs":"EPSG:4326","output_name":"study_area_p0","source_files":[{"path":"data/raw/transit/SurveiActivities.GeoJSON","sha256":"63D5A24D5A74207642A13780254E8897D5D8B39608411474D6A1A83E21DFD398"}]},"type":"FeatureCollection"}
