{"features":[{"geometry":{"coordinates":[112.74765890000003,-7.2652738],"type":"Point"},"properties":{"analysis_version":"p0-central-v1","description_raw":"Pada pukul 20.36, saya mengamati titik Halte Pemuda RRI. Saat ini, kondisi halte terlihat terawat karena dari segi kelengkapan sudah ada pelindung berupa atap dan tempat duduk untuk menunggu. Trotoar atau jalur pedestrian di sekitar halte nyaman untuk dilewati atau sekedar menunggu transportasi, sedangkan kondisi kebersihan area secara umum cukup terawat. Arus kendaraan yang melintas di sekitar halte terpantau padat. Secara keseluruhan, kondisi titik ini baik. #4RUJAK5Sempurna","media":["https://mapid-app-chat.cdn.mapid.io/692d03413a0cf54ea6633e89/85d81952-d370-458f-896c-2d7706940280_CvtMHUA4AS.png","https://mapid-app-chat.cdn.mapid.io/692d03413a0cf54ea6633e89/a08172f7-b5dc-497d-a834-7de3e6a7cc58_1788097062569.jpg"],"scope":"p0-central","source":"SurveiActivities.GeoJSON","source_activity_index":0,"source_file":"data/raw/transit/SurveiActivities.GeoJSON","source_sha256":"63D5A24D5A74207642A13780254E8897D5D8B39608411474D6A1A83E21DFD398","stop_id":"6a94322752d86e03b51f0365","stop_name":"Halte Pemuda RRI","surveyed_at":"2026-08-30T13:37:43.214Z","surveyor":"akmalbobsaid","validation_status":"valid"},"type":"Feature"},{"geometry":{"coordinates":[112.75032809999999,-7.2629196],"type":"Point"},"properties":{"analysis_version":"p0-central-v1","description_raw":"Pada pukul 20.28, saya mengamati titik Bus Stop Grand City. Saat ini, kondisi bus stop terlihat terawat. Trotoar atau jalur pedestrian di sekitar halte nyaman untuk dilewati atau sekedar menunggu transportasi, sedangkan kondisi kebersihan area secara umum cukup terawat. Arus kendaraan yang melintas di sekitar halte terpantau cukup padat. Secara keseluruhan, kondisi titik ini baik. #4RUJAK5Sempurna","media":["https://mapid-app-chat.cdn.mapid.io/692d03413a0cf54ea6633e89/41f6ba03-bb22-4ba5-808c-f5ba7c472276_T5IbIzVi1C.png","https://mapid-app-chat.cdn.mapid.io/692d03413a0cf54ea6633e89/a29930cd-8d7b-45f0-98c9-e70bc5350304_1788096586921.jpg"],"scope":"p0-central","source":"SurveiActivities.GeoJSON","source_activity_index":1,"source_file":"data/raw/transit/SurveiActivities.GeoJSON","source_sha256":"63D5A24D5A74207642A13780254E8897D5D8B39608411474D6A1A83E21DFD398","stop_id":"6a94304b52d86e03b51efc92","stop_name":"Bus Stop Grand City","surveyed_at":"2026-08-30T13:29:47.803Z","surveyor":"akmalbobsaid","validation_status":"valid"},"type":"Feature"},{"geometry":{"coordinates":[112.74795169999999,-7.2609883],"type":"Point"},"properties":{"analysis_version":"p0-central-v1","description_raw":"Pada pukul 20.24, saya mengamati titik Bus Stop Balai Kota Surabya. Saat ini, kondisi halte terlihat terawat karena dari segi kelengkapan sudah ada tempat duduk untuk menunggu. Trotoar atau jalur pedestrian di sekitar halte nyaman untuk dilewati atau sekedar menunggu transportasi, sedangkan kondisi kebersihan area secara umum cukup terawat. Arus kendaraan yang melintas di sekitar halte terpantau cukup padat. Secara keseluruhan, kondisi titik ini baik. #4RUJAK5Sempurna","media":["https://mapid-app-chat.cdn.mapid.io/692d03413a0cf54ea6633e89/8a4a4f27-902f-4e13-a869-053e8fb68913_vdaAUWosxD.png","https://mapid-app-chat.cdn.mapid.io/692d03413a0cf54ea6633e89/9f0fe069-821b-4812-9043-6f28b7561014_1788096349910.jpg"],"scope":"p0-central","source":"SurveiActivities.GeoJSON","source_activity_index":2,"source_file":"data/raw/transit/SurveiActivities.GeoJSON","source_sha256":"63D5A24D5A74207642A13780254E8897D5D8B39608411474D6A1A83E21DFD398","stop_id":"6a942f5e52d86e03b51efa52","stop_name":"Bus Stop Balai Kota A","surveyed_at":"2026-08-30T13:25:50.680Z","surveyor":"akmalbobsaid","validation_status":"valid"},"type":"Feature"},{"geometry":{"coordinates":[112.74495790000003,-7.2664402],"type":"Point"},"properties":{"analysis_version":"p0-central-v1","description_raw":"Pada pukul 18.52, saya mengamati titik Halte Pangsud. Saat ini, kondisi halte terlihat terawat karena dari segi kelengkapan sudah ada pelindung berupa atap dan tempat duduk untuk menunggu. Trotoar atau jalur pedestrian di sekitar halte nyaman untuk dilewati atau sekedar menunggu transportasi, sedangkan kondisi kebersihan area secara umum cukup terawat. Arus kendaraan yang melintas di sekitar halte terpantau cukup padat. Secara keseluruhan, kondisi titik ini baik. #4RUJAK5Sempurna","media":["https://mapid-app-chat.cdn.mapid.io/692d03413a0cf54ea6633e89/3ab72a29-0022-489c-9016-8707d1ffbf8e_QtSnE7meVc.png","https://mapid-app-chat.cdn.mapid.io/692d03413a0cf54ea6633e89/604ab621-2f65-4aec-9507-5fdd15922e07_1788004391441.jpg"],"scope":"p0-central","source":"SurveiActivities.GeoJSON","source_activity_index":136,"source_file":"data/raw/transit/SurveiActivities.GeoJSON","source_sha256":"63D5A24D5A74207642A13780254E8897D5D8B39608411474D6A1A83E21DFD398","stop_id":"6a92c82852d86e03b51dbb58","stop_name":"Halte Pangsud","surveyed_at":"2026-08-29T11:53:12.479Z","surveyor":"akmalbobsaid","validation_status":"valid"},"type":"Feature"},{"geometry":{"coordinates":[112.7419137,-7.2630167],"type":"Point"},"properties":{"analysis_version":"p0-central-v1","description_raw":"Pada pukul 18.48, saya mengamati titik Halte Simpang Dukuh. Saat ini, kondisi halte terlihat terawat karena dari segi kelengkapan sudah ada pelindung berupa atap dan tempat duduk untuk menunggu. Trotoar atau jalur pedestrian di sekitar halte nyaman untuk dilewati atau sekedar menunggu transportasi, sedangkan kondisi kebersihan area secara umum cukup terawat karena terdapat beberapa tempat sampah di sekitar halte. Arus kendaraan yang melintas di sekitar halte terpantau cukup padat. Secara keseluruhan, kondisi titik ini baik. #4RUJAK5Sempurna","media":["https://mapid-app-chat.cdn.mapid.io/692d03413a0cf54ea6633e89/1a2d48b3-91ea-4903-9d70-a2728c6a76b0_9hVRieMsIr.png","https://mapid-app-chat.cdn.mapid.io/692d03413a0cf54ea6633e89/b3309ccc-0afb-40cb-98b8-4312f952f550_1788004208459.jpg"],"scope":"p0-central","source":"SurveiActivities.GeoJSON","source_activity_index":139,"source_file":"data/raw/transit/SurveiActivities.GeoJSON","source_sha256":"63D5A24D5A74207642A13780254E8897D5D8B39608411474D6A1A83E21DFD398","stop_id":"6a92c77152d86e03b51db962","stop_name":"Halte Simpang Dukuh","surveyed_at":"2026-08-29T11:50:09.564Z","surveyor":"akmalbobsaid","validation_status":"valid"},"type":"Feature"},{"geometry":{"coordinates":[112.73927909999998,-7.2598872],"type":"Point"},"properties":{"analysis_version":"p0-central-v1","description_raw":"Pada pukul 18.45, saya mengamati titik Bus Stop Tunjungan. Saat ini, kondisi bus stop terlihat terawat karena dari segi kelengkapan sudah ada tempat duduk untuk menunggu. Trotoar atau jalur pedestrian di sekitar halte nyaman untuk dilewati atau sekedar menunggu transportasi, sedangkan kondisi kebersihan area secara umum cukup terawat. Arus kendaraan yang melintas di sekitar halte terpantau cukup padat. Secara keseluruhan, kondisi titik ini baik. #4RUJAK5Sempurna","media":["https://mapid-app-chat.cdn.mapid.io/692d03413a0cf54ea6633e89/d4e06463-3a91-4f03-a2a6-5005fe61e502_8iSKTPZp9L.png","https://mapid-app-chat.cdn.mapid.io/692d03413a0cf54ea6633e89/16473a9e-f439-432c-8ae7-6c28454c959e_1788004012466.jpg"],"scope":"p0-central","source":"SurveiActivities.GeoJSON","source_activity_index":142,"source_file":"data/raw/transit/SurveiActivities.GeoJSON","source_sha256":"63D5A24D5A74207642A13780254E8897D5D8B39608411474D6A1A83E21DFD398","stop_id":"6a92c6ad52d86e03b51db794","stop_name":"Bus Stop Tunjungan","surveyed_at":"2026-08-29T11:46:53.627Z","surveyor":"akmalbobsaid","validation_status":"valid"},"type":"Feature"},{"geometry":{"coordinates":[112.73782360000001,-7.2573828],"type":"Point"},"properties":{"analysis_version":"p0-central-v1","description_raw":"Pada pukul 18.41, saya mengamati titik Bus Stop Siola. Saat ini, kondisi halte terlihat terawat karena dari segi kelengkapan sudah ada tempat duduk untuk menunggu. Trotoar atau jalur pedestrian di sekitar halte nyaman untuk dilewati atau sekedar menunggu transportasi, sedangkan kondisi kebersihan area secara umum cukup terawat. Arus kendaraan yang melintas di sekitar halte terpantau cukup padat. Secara keseluruhan, kondisi titik ini baik. #4RUJAK5Sempurna","media":["https://mapid-app-chat.cdn.mapid.io/692d03413a0cf54ea6633e89/8e79be2f-1664-4a19-9d5c-145e1348caf4_6JfKtN5qH5.png","https://mapid-app-chat.cdn.mapid.io/692d03413a0cf54ea6633e89/f2c8f0b4-81b7-40df-bff3-76a9d5e62823_1788003805072.jpg"],"scope":"p0-central","source":"SurveiActivities.GeoJSON","source_activity_index":145,"source_file":"data/raw/transit/SurveiActivities.GeoJSON","source_sha256":"63D5A24D5A74207642A13780254E8897D5D8B39608411474D6A1A83E21DFD398","stop_id":"6a92c5e152d86e03b51db51f","stop_name":"Bus Stop Siola","surveyed_at":"2026-08-29T11:43:29.023Z","surveyor":"akmalbobsaid","validation_status":"valid"},"type":"Feature"},{"geometry":{"coordinates":[112.73747229999998,-7.2605207],"type":"Point"},"properties":{"analysis_version":"p0-central-v1","description_raw":"Pada pukul 17.17, saya mengamati titik Halte Embong Malang. Saat ini, kondisi halte terlihat terawat karena dari segi kelengkapan sudah/hanya ada pelindung berupa atap dan tempat duduk untuk menunggu. Trotoar atau jalur pedestrian di sekitar halte nyaman untuk dilewati atau sekedar menunggu transportasi, sedangkan kondisi kebersihan area secara umum cukup terawat karena terdapat beberapa tempat sampah di sekitar halte. Arus kendaraan yang melintas di sekitar halte terpantau lancar. Secara keseluruhan, kondisi titik ini baik. #4RUJAK5Sempurna","media":["https://mapid-app-chat.cdn.mapid.io/692d03413a0cf54ea6633e89/f59e08c6-325d-4f55-92d5-8b2937966614_IXhWQ0ssXw.png","https://mapid-app-chat.cdn.mapid.io/692d03413a0cf54ea6633e89/a8729a66-d63c-4a37-a81c-3c6f03167c36_1787998754027.jpg"],"scope":"p0-central","source":"SurveiActivities.GeoJSON","source_activity_index":201,"source_file":"data/raw/transit/SurveiActivities.GeoJSON","source_sha256":"63D5A24D5A74207642A13780254E8897D5D8B39608411474D6A1A83E21DFD398","stop_id":"6a92b2233f59e23bb862c962","stop_name":"Halte Embong Malang","surveyed_at":"2026-08-29T10:19:15.310Z","surveyor":"akmalbobsaid","validation_status":"valid"},"type":"Feature"},{"geometry":{"coordinates":[112.74095999999997,-7.2647],"type":"Point"},"properties":{"analysis_version":"p0-central-v1","description_raw":"Pada pukul 17.13, saya mengamati titik Halte Kaliasin. Saat ini, kondisi halte terlihat sedang perbaikan. Trotoar atau jalur pedestrian di sekitar halte nyaman untuk dilewati atau sekedar menunggu transportasi, sedangkan kondisi kebersihan area secara umum cukup terawat karena terdapat beberapa tempat sampah di sekitar halte. Arus kendaraan yang melintas di sekitar halte terpantau lancar. Secara keseluruhan, kondisi titik ini baik. #4RUJAK5Sempurna","media":["https://mapid-app-chat.cdn.mapid.io/692d03413a0cf54ea6633e89/65be2b6b-ec6d-475d-984a-d5a456d7021a_dPf8Je3jHx.png","https://mapid-app-chat.cdn.mapid.io/692d03413a0cf54ea6633e89/27e7a341-9159-4583-95dd-a44a84c37b11_1787998502366.jpg"],"scope":"p0-central","source":"SurveiActivities.GeoJSON","source_activity_index":202,"source_file":"data/raw/transit/SurveiActivities.GeoJSON","source_sha256":"63D5A24D5A74207642A13780254E8897D5D8B39608411474D6A1A83E21DFD398","stop_id":"6a92b1273f59e23bb862c863","stop_name":"Halte Kaliasin","surveyed_at":"2026-08-29T10:15:03.382Z","surveyor":"akmalbobsaid","validation_status":"valid"},"type":"Feature"}],"metadata":{"analysis_version":"p0-central-v1","output_crs":"EPSG:4326","output_name":"transit_points_p0","source_files":[{"path":"data/raw/transit/SurveiActivities.GeoJSON","sha256":"63D5A24D5A74207642A13780254E8897D5D8B39608411474D6A1A83E21DFD398"}]},"type":"FeatureCollection"}
